norad_id,name,regime,epoch,line1,line2,inclination,eccentricity,mean_motion,raan,arg_pericenter,mean_anomaly
26566,COSMOS 2374 (GLONASS),NSO,02208.97353010,1 26566U 00063C   02208.97353010 +.00000031 +00000-0 +10000-3 0 0564\,2 26566 064.6196 248.4357 0040766 228.4632 159.1298 02.1309831401389,64.6196,0.0040766,2.13098314,248.4357,228.4632,159.1298
26566,COSMOS 2374 (GLONASS),NSO,02209.42593544,1 26566U 00063C   02209.42593544  .00000032  00000-0  10000-3 0  5639\,2 26566 064.6196 248.4203 0040777 228.4623 146.1949 02.13098314 13902,64.6196,0.0040777,2.13098314,248.4203,228.4623,146.1949
26566,COSMOS 2374 (GLONASS),NSO,02209.59335610,1 26566U 00063C   02209.59335610 +.00000032 +00000-0 +10000-3 0 0564\,2 26566 064.6196 248.4146 0040777 228.4607 274.6337 02.1309831401390,64.6196,0.0040777,2.13098314,248.4146,228.4607,274.6337
26566,COSMOS 2374 (GLONASS),NSO,02210.37384380,1 26566U 00063C   02210.37384380 +.00000036 +00000-0 +10000-3 0 0566\,2 26566 064.6194 248.3882 0040790 228.4610 153.3874 02.1309832201392,64.6194,0.004079,2.13098322,248.3882,228.461,153.3874
26566,COSMOS 2374 (GLONASS),NSO,02211.20127098,1 26566U 00063C   02211.20127098  .00000043  00000-0  10000-3 0  5648\,2 26566 064.6191 248.3605 0040828 228.4857 068.1262 02.13098352 13934,64.6191,0.0040828,2.13098352,248.3605,228.4857,68.1262
26566,COSMOS 2374 (GLONASS),NSO,02211.47754448,1 26566U 00063C   02211.47754448 +.00000046 +00000-0 +10000-3 0 0565\,2 26566 064.6189 248.3507 0040827 228.3966 280.1608 02.1309834001394,64.6189,0.0040827,2.1309834,248.3507,228.3966,280.1608
26566,COSMOS 2374 (GLONASS),NSO,02212.33431226,1 26566U 00063C   02212.33431226 +.00000056 +00000-0 +10000-3 0 0565\,2 26566 064.6190 248.3216 0040787 228.4663 217.3619 02.1309833001396,64.619,0.0040787,2.1309833,248.3216,228.4663,217.3619
26566,COSMOS 2374 (GLONASS),NSO,02213.73952412,1 26566U 00063C   02213.73952412 +.00000075 +00000-0 +10000-3 0 0566\,2 26566 064.6192 248.2735 0040827 228.4591 215.3826 02.1309834801399,64.6192,0.0040827,2.13098348,248.2735,228.4591,215.3826
26566,COSMOS 2374 (GLONASS),NSO,02214.74279291,1 26566U 00063C   02214.74279291 +.00000087 +00000-0 +10000-3 0 0567\,2 26566 064.6190 248.2394 0040822 228.4506 265.0520 02.1309835101401,64.619,0.0040822,2.13098351,248.2394,228.4506,265.052
26566,COSMOS 2374 (GLONASS),NSO,02215.62540309,1 26566U 00063C   02215.62540309 +.00000095 +00000-0 +10000-3 0 0570\,2 26566 064.6190 248.2095 0040830 228.4620 222.1392 02.1309837701403,64.619,0.004083,2.13098377,248.2095,228.462,222.1392
26566,COSMOS 2374 (GLONASS),NSO,02216.08116321,1 26566U 00063C   02216.08116321  .00000099  00000-0  10000-3 0  5681\,2 26566 064.6192 248.1941 0040842 228.4593 211.7800 02.13098385 14042,64.6192,0.0040842,2.13098385,248.1941,228.4593,211.78
26566,COSMOS 2374 (GLONASS),NSO,02216.63710035,1 26566U 00063C   02216.63710035 +.00000102 +00000-0 +10000-3 0 0570\,2 26566 064.6191 248.1754 0040856 228.4609 278.2687 02.1309840801405,64.6191,0.0040856,2.13098408,248.1754,228.4609,278.2687
26566,COSMOS 2374 (GLONASS),NSO,02217.44795475,1 26566U 00063C   02217.44795475  .00000104  00000-0  10000-3 0  5693\,2 26566 064.6191 248.1480 0040895 228.4132 180.3679 02.13098438 14073,64.6191,0.0040895,2.13098438,248.148,228.4132,180.3679
26566,COSMOS 2374 (GLONASS),NSO,02217.57090756,1 26566U 00063C   02217.57090756 +.00000104 +00000-0 +10000-3 0 0570\,2 26566 064.6195 248.1452 0040938 228.4497 274.6592 02.1309875601407,64.6195,0.0040938,2.13098756,248.1452,228.4497,274.6592
26566,COSMOS 2374 (GLONASS),NSO,02218.51008413,1 26566U 00063C   02218.51008413  .00000103  00000-0  10000-3 0  5702\,2 26566 064.6190 248.1130 0040933 228.4655 275.1368 02.13098758 14092,64.619,0.0040933,2.13098758,248.113,228.4655,275.1368
26566,COSMOS 2374 (GLONASS),NSO,02218.90543954,1 26566U 00063C   02218.90543954 +.00000102 +00000-0 +10000-3 0 0571\,2 26566 064.6183 248.0988 0040978 228.4120 218.4907 02.1309879701410,64.6183,0.0040978,2.13098797,248.0988,228.412,218.4907
26566,COSMOS 2374 (GLONASS),NSO,02219.53478782,1 26566U 00063C   02219.53478782 +.00000098 +00000-0 +10000-3 0 0571\,2 26566 064.6177 248.0774 0040990 228.5380 341.1700 02.1309875201411,64.6177,0.004099,2.13098752,248.0774,228.538,341.17
26566,COSMOS 2374 (GLONASS),NSO,02220.16971398,1 26566U 00063C   02220.16971398  .00000093  00000-0  10000-3 0  5727\,2 26566 064.6181 248.0551 0040979 228.4021 108.3885 02.13098491 14124,64.6181,0.0040979,2.13098491,248.0551,228.4021,108.3885
26566,COSMOS 2374 (GLONASS),NSO,02220.65539479,1 26566U 00063C   02220.65539479 +.00000088 +00000-0 +10000-3 0 0574\,2 26566 064.6181 248.0387 0040993 228.3744 121.0085 02.1309850601413,64.6181,0.0040993,2.13098506,248.0387,228.3744,121.0085
26566,COSMOS 2374 (GLONASS),NSO,02221.20671201,1 26566U 00063C   02221.20671201  .00000083  00000-0  10000-3 0  5733\,2 26566 064.6180 248.0199 0040992 228.3696 183.9584 02.13098510 14153,64.618,0.0040992,2.1309851,248.0199,228.3696,183.9584
26566,COSMOS 2374 (GLONASS),NSO,02221.74699318,1 26566U 00063C   02221.74699318 +.00000078 +00000-0 +10000-3 0 0575\,2 26566 064.6179 248.0014 0040994 228.3594 238.4482 02.1309852601416,64.6179,0.0040994,2.13098526,248.0014,228.3594,238.4482
26566,COSMOS 2374 (GLONASS),NSO,02222.63182160,1 26566U 00063C   02222.63182160 +.00000070 +00000-0 +10000-3 0 0575\,2 26566 064.6177 247.9721 0040997 228.3502 197.2566 02.1309853201418,64.6177,0.0040997,2.13098532,247.9721,228.3502,197.2566
26566,COSMOS 2374 (GLONASS),NSO,02223.60450741,1 26566U 00063C   02223.60450741 +.00000064 +00000-0 +10000-3 0 0578\,2 26566 064.6176 247.9390 0041009 228.3556 223.4522 02.1309855901420,64.6176,0.0041009,2.13098559,247.939,228.3556,223.4522
26566,COSMOS 2374 (GLONASS),NSO,02224.63391068,1 26566U 00063C   02224.63391068 +.00000062 +00000-0 +10000-3 0 0577\,2 26566 064.6175 247.9039 0041011 228.3409 293.1786 02.1309858901422,64.6175,0.0041011,2.13098589,247.9039,228.3409,293.1786
26566,COSMOS 2374 (GLONASS),NSO,02225.46863373,1 26566U 00063C   02225.46863373  .00000065  00000-0  10000-3 0  5761\,2 26566 064.6174 247.8755 0041025 228.3636 213.5177 02.13098616 14248,64.6174,0.0041025,2.13098616,247.8755,228.3636,213.5177
26566,COSMOS 2374 (GLONASS),NSO,02225.54839222,1 26566U 00063C   02225.54839222 +.00000065 +00000-0 +10000-3 0 0577\,2 26566 064.6174 247.8728 0041029 228.3666 274.7018 02.1309861901424,64.6174,0.0041029,2.13098619,247.8728,228.3666,274.7018
26566,COSMOS 2374 (GLONASS),NSO,02226.55946161,1 26566U 00063C   02226.55946161 +.00000072 +00000-0 +10000-3 0 0577\,2 26566 064.6171 247.8383 0041070 228.3734 330.3417 02.1309864501426,64.6171,0.004107,2.13098645,247.8383,228.3734,330.3417
26566,COSMOS 2374 (GLONASS),NSO,02227.76006007,1 26566U 00063C   02227.76006007 +.00000081 +00000-0 +10000-3 0 0578\,2 26566 064.6166 247.7975 0041148 228.5707 171.1841 02.1309860401429,64.6166,0.0041148,2.13098604,247.7975,228.5707,171.1841
26566,COSMOS 2374 (GLONASS),NSO,02228.66033594,1 26566U 00063C   02228.66033594 +.00000086 +00000-0 +10000-3 0 0581\,2 26566 064.6164 247.7666 0041172 228.5892 141.8166 02.1309862601431,64.6164,0.0041172,2.13098626,247.7666,228.5892,141.8166
26566,COSMOS 2374 (GLONASS),NSO,02229.17875594,1 26566U 00063C   02229.17875594  .00000088  00000-0  10000-3 0  5799\,2 26566 064.6164 247.7490 0041096 228.3964 179.7219 02.13098680 14324,64.6164,0.0041096,2.1309868,247.749,228.3964,179.7219
26566,COSMOS 2374 (GLONASS),NSO,02229.73051725,1 26566U 00063C   02229.73051725 +.00000089 +00000-0 +10000-3 0 0581\,2 26566 064.6162 247.7302 0041095 228.4049 242.9998 02.1309868701433,64.6162,0.0041095,2.13098687,247.7302,228.4049,242.9998
26566,COSMOS 2374 (GLONASS),NSO,02230.54909059,1 26566U 00063C   02230.54909059  .00000087  00000-0  10000-3 0  5807\,2 26566 064.6160 247.7024 0041097 228.3915 150.9856 02.13098703 14357,64.616,0.0041097,2.13098703,247.7024,228.3915,150.9856
26566,COSMOS 2374 (GLONASS),NSO,02230.58159885,1 26566U 00063C   02230.58159885 +.00000087 +00000-0 +10000-3 0 0581\,2 26566 064.6175 247.7034 0041061 228.7035 175.6097 02.1309872901435,64.6175,0.0041061,2.13098729,247.7034,228.7035,175.6097
26566,COSMOS 2374 (GLONASS),NSO,02231.58193619,1 26566U 00063C   02231.58193619 +.00000080 +00000-0 +10000-3 0 0581\,2 26566 064.6164 247.6675 0041100 228.3846 223.3448 02.1309872401437,64.6164,0.00411,2.13098724,247.6675,228.3846,223.3448
26566,COSMOS 2374 (GLONASS),NSO,02232.59215019,1 26566U 00063C   02232.59215019 +.00000069 +00000-0 +10000-3 0 0582\,2 26566 064.6164 247.6333 0041115 228.3886 278.3316 02.1309874301439,64.6164,0.0041115,2.13098743,247.6333,228.3886,278.3316
26566,COSMOS 2374 (GLONASS),NSO,02233.52593501,1 26566U 00063C   02233.52593501 +.00000059 +00000-0 +10000-3 0 0585\,2 26566 064.6162 247.6015 0041118 228.3796 274.6976 02.1309874301441,64.6162,0.0041118,2.13098743,247.6015,228.3796,274.6976
26566,COSMOS 2374 (GLONASS),NSO,02234.02061214,1 26566U 00063C   02234.02061214  .00000053  00000-0  10000-3 0  5832\,2 26566 064.6161 247.5847 0041119 228.3748 294.1961 02.13098743 14428,64.6161,0.0041119,2.13098743,247.5847,228.3748,294.1961
26566,COSMOS 2374 (GLONASS),NSO,02234.48082454,1 26566U 00063C   02234.48082454 +.00000048 +00000-0 +10000-3 0 0585\,2 26566 064.6160 247.5691 0041121 228.3704 287.2544 02.1309874301443,64.616,0.0041121,2.13098743,247.5691,228.3704,287.2544
26566,COSMOS 2374 (GLONASS),NSO,02235.41003178,1 26566U 00063C   02235.41003178  .00000041  00000-0  10000-3 0  5849\,2 26566 064.6158 247.5375 0041124 228.3614 280.1087 02.13098744 14456,64.6158,0.0041124,2.13098744,247.5375,228.3614,280.1087
26566,COSMOS 2374 (GLONASS),NSO,02235.68576101,1 26566U 00063C   02235.68576101 +.00000040 +00000-0 +10000-3 0 0585\,2 26566 064.6158 247.5282 0041125 228.3587 131.6383 02.1309874401446,64.6158,0.0041125,2.13098744,247.5282,228.3587,131.6383
